

*******************************************************************************
Ephemeris / WWW_USER Tue May 30 06:01:06 2023 Pasadena, USA      / Horizons    
*******************************************************************************
Target body name: Mars (499)                      {source: mar097}
Center body name: Earth (399)                     {source: DE441}
Center-site name: GEOCENTRIC
*******************************************************************************
Start time      : A.D. 1980-Jan-01 00:00:00.0000 UT      
Stop  time      : A.D. 2023-Jan-01 00:00:00.0000 UT      
Step-size       : 1440 minutes
*******************************************************************************
Target pole/equ : IAU_MARS                        {West-longitude positive}
Target radii    : 3396.19, 3396.19, 3376.2 km     {Equator_a, b, pole_c}       
Center geodetic : 0.0, 0.0, -6378.137             {E-lon(deg),Lat(deg),Alt(km)}
Center cylindric: 0.0, 0.0, 0.0                   {E-lon(deg),Dxy(km),Dz(km)}
Center pole/equ : ITRF93                          {East-longitude positive}
Center radii    : 6378.137, 6378.137, 6356.752 km {Equator_a, b, pole_c}       
Target primary  : Sun
Vis. interferer : MOON (R_eq= 1737.400) km        {source: DE441}
Rel. light bend : Sun                             {source: DE441}
Rel. lght bnd GM: 1.3271E+11 km^3/s^2                                          
Atmos refraction: NO (AIRLESS)
RA format       : DEG
Time format     : CAL 
Calendar mode   : Gregorian
EOP file        : eop.230528.p230821                                           
EOP coverage    : DATA-BASED 1962-JAN-20 TO 2023-MAY-28. PREDICTS-> 2023-AUG-20
Units conversion: 1 au= 149597870.700 km, c= 299792.458 km/s, 1 day= 86400.0 s 
Table cut-offs 1: Elevation (-90.0deg=NO ),Airmass (>38.000=NO), Daylight (NO )
Table cut-offs 2: Solar elongation (  0.0,180.0=NO ),Local Hour Angle( 0.0=NO )
Table cut-offs 3: RA/DEC angular rate (     0.0=NO )                           
Table format    : Comma Separated Values (spreadsheet)
*******************************************************************************
 Date__(UT)__HR:MN, , , R.A._(ICRF), DEC_(ICRF),             delta,     deldot,
*******************************************************************************
$$SOE
 2012-Nov-08 00:00, , ,   262.29984,  -24.32814,  2.07885625234863,  5.4681643,
 2012-Nov-09 00:00, , ,   263.11736,  -24.37029,  2.08200436031092,  5.4330066,
 2012-Nov-10 00:00, , ,   263.93659,  -24.40817,  2.08513214113220,  5.3977635,
 2012-Nov-11 00:00, , ,   264.75747,  -24.44174,  2.08823952126243,  5.3623545,
 2012-Nov-12 00:00, , ,   265.57994,  -24.47097,  2.09132638867851,  5.3267305,
 2012-Nov-13 00:00, , ,   266.40392,  -24.49585,  2.09439261728895,  5.2908956,
 2012-Nov-14 00:00, , ,   267.22934,  -24.51635,  2.09743810316742,  5.2549242,
 2012-Nov-15 00:00, , ,   268.05613,  -24.53245,  2.10046280646854,  5.2189622,
 2012-Nov-16 00:00, , ,   268.88421,  -24.54413,  2.10346678794924,  5.1832070,
 2012-Nov-17 00:00, , ,   269.71348,  -24.55136,  2.10645022907349,  5.1478729,
 2012-Nov-18 00:00, , ,   270.54388,  -24.55413,  2.10941343084440,  5.1131543,
 2012-Nov-19 00:00, , ,   271.37531,  -24.55242,  2.11235679489486,  5.0792026,
 2012-Nov-20 00:00, , ,   272.20770,  -24.54623,  2.11528079555486,  5.0461182,
 2012-Nov-21 00:00, , ,   273.04097,  -24.53553,  2.11818595154037,  5.0139559,
 2012-Nov-22 00:00, , ,   273.87505,  -24.52031,  2.12107280252182,  4.9827354,
 2012-Nov-23 00:00, , ,   274.70985,  -24.50057,  2.12394189211549,  4.9524522,
 2012-Nov-24 00:00, , ,   275.54531,  -24.47628,  2.12679375645701,  4.9230861,
 2012-Nov-25 00:00, , ,   276.38136,  -24.44746,  2.12962891661873,  4.8946057,
 2012-Nov-26 00:00, , ,   277.21792,  -24.41408,  2.13244787319795,  4.8669717,
 2012-Nov-27 00:00, , ,   278.05492,  -24.37614,  2.13525110189197,  4.8401375,
 2012-Nov-28 00:00, , ,   278.89230,  -24.33364,  2.13803904943466,  4.8140493,
 2012-Nov-29 00:00, , ,   279.72999,  -24.28658,  2.14081212972150,  4.7886473,
 2012-Nov-30 00:00, , ,   280.56792,  -24.23495,  2.14357072021930,  4.7638653,
 2012-Dec-01 00:00, , ,   281.40603,  -24.17876,  2.14631515882815,  4.7396325,
 2012-Dec-02 00:00, , ,   282.24425,  -24.11801,  2.14904574126664,  4.7158738,
 2012-Dec-03 00:00, , ,   283.08252,  -24.05270,  2.15176271885792,  4.6925107,
 2012-Dec-04 00:00, , ,   283.92077,  -23.98284,  2.15446629640162,  4.6694606,
 2012-Dec-05 00:00, , ,   284.75895,  -23.90843,  2.15715662973402,  4.6466362,
 2012-Dec-06 00:00, , ,   285.59698,  -23.82949,  2.15983382270506,  4.6239447,
 2012-Dec-07 00:00, , ,   286.43482,  -23.74602,  2.16249792372471,  4.6012870,
 2012-Dec-08 00:00, , ,   287.27238,  -23.65803,  2.16514892281541,  4.5785607,
 2012-Dec-09 00:00, , ,   288.10962,  -23.56554,  2.16778675123571,  4.5556664,
 2012-Dec-10 00:00, , ,   288.94646,  -23.46857,  2.17041128695187,  4.5325218,
 2012-Dec-11 00:00, , ,   289.78285,  -23.36712,  2.17302236980650,  4.5090809,
 2012-Dec-12 00:00, , ,   290.61871,  -23.26123,  2.17561982897760,  4.4853560,
 2012-Dec-13 00:00, , ,   291.45398,  -23.15092,  2.17820352131128,  4.4614319,
 2012-Dec-14 00:00, , ,   292.28858,  -23.03620,  2.18077337321548,  4.4374623,
 2012-Dec-15 00:00, , ,   293.12245,  -22.91710,  2.18332941451690,  4.4136459,
 2012-Dec-16 00:00, , ,   293.95551,  -22.79365,  2.18587179400303,  4.3901896,
 2012-Dec-17 00:00, , ,   294.78769,  -22.66589,  2.18840077353040,  4.3672733,
 2012-Dec-18 00:00, , ,   295.61893,  -22.53383,  2.19091670590705,  4.3450301,
 2012-Dec-19 00:00, , ,   296.44917,  -22.39751,  2.19342000599864,  4.3235425,
 2012-Dec-20 00:00, , ,   297.27834,  -22.25696,  2.19591112343502,  4.3028501,
 2012-Dec-21 00:00, , ,   298.10640,  -22.11221,  2.19839052142999,  4.2829624,
 2012-Dec-22 00:00, , ,   298.93328,  -21.96329,  2.20085866254032,  4.2638694,
 2012-Dec-23 00:00, , ,   299.75895,  -21.81024,  2.20331600003719,  4.2455498,
 2012-Dec-24 00:00, , ,   300.58335,  -21.65310,  2.20576297286045,  4.2279758,
 2012-Dec-25 00:00, , ,   301.40644,  -21.49189,  2.20820000227703,  4.2111141,
 2012-Dec-26 00:00, , ,   302.22818,  -21.32666,  2.21062748885824,  4.1949262,
 2012-Dec-27 00:00, , ,   303.04853,  -21.15744,  2.21304580894674,  4.1793665,
 2012-Dec-28 00:00, , ,   303.86746,  -20.98428,  2.21545531028605,  4.1643813,
 2012-Dec-29 00:00, , ,   304.68494,  -20.80720,  2.21785630688899,  4.1499073,
 2012-Dec-30 00:00, , ,   305.50093,  -20.62626,  2.22024907349064,  4.1358718,
 2012-Dec-31 00:00, , ,   306.31541,  -20.44149,  2.22263384003737,  4.1221926,
 2013-Jan-01 00:00, , ,   307.12835,  -20.25293,  2.22501078660264,  4.1087793,
 2013-Jan-02 00:00, , ,   307.93972,  -20.06064,  2.22738003894821,  4.0955345,
 2013-Jan-03 00:00, , ,   308.74951,  -19.86464,  2.22974166478003,  4.0823548,
 2013-Jan-04 00:00, , ,   309.55769,  -19.66499,  2.23209567072609,  4.0691324,
 2013-Jan-05 00:00, , ,   310.36425,  -19.46173,  2.23444200032377,  4.0557572,
 2013-Jan-06 00:00, , ,   311.16916,  -19.25491,  2.23678053391579,  4.0421213,
 2013-Jan-07 00:00, , ,   311.97241,  -19.04458,  2.23911109224127,  4.0281280,
 2013-Jan-08 00:00, , ,   312.77397,  -18.83078,  2.24143344632745,  4.0137047,
 2013-Jan-09 00:00, , ,   313.57384,  -18.61358,  2.24374733633576,  3.9988200,
 2013-Jan-10 00:00, , ,   314.37198,  -18.39301,  2.24605250039626,  3.9835005,
 2013-Jan-11 00:00, , ,   315.16838,  -18.16915,  2.24834871080684,  3.9678381,
 2013-Jan-12 00:00, , ,   315.96301,  -17.94204,  2.25063581047732,  3.9519827,
 2013-Jan-13 00:00, , ,   316.75586,  -17.71173,  2.25291374005025,  3.9361179,
 2013-Jan-14 00:00, , ,   317.54691,  -17.47829,  2.25518254827989,  3.9204289,
 2013-Jan-15 00:00, , ,   318.33612,  -17.24177,  2.25744238440105,  3.9050745,
 2013-Jan-16 00:00, , ,   319.12350,  -17.00223,  2.25969347756310,  3.8901714,
 2013-Jan-17 00:00, , ,   319.90903,  -16.75973,  2.26193611129112,  3.8757920,
 2013-Jan-18 00:00, , ,   320.69270,  -16.51432,  2.26417059979680,  3.8619717,
 2013-Jan-19 00:00, , ,   321.47450,  -16.26606,  2.26639726979300,  3.8487202,
 2013-Jan-20 00:00, , ,   322.25443,  -16.01500,  2.26861644847150,  3.8360310,
 2013-Jan-21 00:00, , ,   323.03249,  -15.76120,  2.27082845649782,  3.8238888,
 2013-Jan-22 00:00, , ,   323.80869,  -15.50473,  2.27303360420889,  3.8122735,
 2013-Jan-23 00:00, , ,   324.58302,  -15.24563,  2.27523218922028,  3.8011612,
 2013-Jan-24 00:00, , ,   325.35550,  -14.98396,  2.27742449397063,  3.7905229,
 2013-Jan-25 00:00, , ,   326.12614,  -14.71977,  2.27961078214744,  3.7803222,
 2013-Jan-26 00:00, , ,   326.89494,  -14.45313,  2.28179129339140,  3.7705118,
 2013-Jan-27 00:00, , ,   327.66192,  -14.18409,  2.28396623616196,  3.7610304,
 2013-Jan-28 00:00, , ,   328.42710,  -13.91271,  2.28613577914377,  3.7518014,
 2013-Jan-29 00:00, , ,   329.19050,  -13.63904,  2.28830004200777,  3.7427319,
 2013-Jan-30 00:00, , ,   329.95213,  -13.36313,  2.29045908660486,  3.7337148,
 2013-Jan-31 00:00, , ,   330.71201,  -13.08505,  2.29261290968658,  3.7246326,
 2013-Feb-01 00:00, , ,   331.47018,  -12.80485,  2.29476143803749,  3.7153615,
 2013-Feb-02 00:00, , ,   332.22664,  -12.52259,  2.29690452660732,  3.7057774,
 2013-Feb-03 00:00, , ,   332.98143,  -12.23832,  2.29904196005328,  3.6957621,
 2013-Feb-04 00:00, , ,   333.73457,  -11.95210,  2.30117345818909,  3.6852107,
 2013-Feb-05 00:00, , ,   334.48608,  -11.66400,  2.30329868614256,  3.6740404,
 2013-Feb-06 00:00, , ,   335.23597,  -11.37406,  2.30541727023972,  3.6622014,
 2013-Feb-07 00:00, , ,   335.98428,  -11.08235,  2.30752882025048,  3.6496878,
 2013-Feb-08 00:00, , ,   336.73102,  -10.78894,  2.30963295721012,  3.6365454,
 2013-Feb-09 00:00, , ,   337.47620,  -10.49388,  2.31172934367846,  3.6228714,
 2013-Feb-10 00:00, , ,   338.21985,  -10.19723,  2.31381771102893,  3.6088042,
 2013-Feb-11 00:00, , ,   338.96198,   -9.89906,  2.31589787777496,  3.5945033,
